OBJECT_NAME,OBJECT_ID,EPOCH,MEAN_MOTION,ECCENTRICITY,INCLINATION,RA_OF_ASC_NODE,ARG_OF_PERICENTER,MEAN_ANOMALY,EPHEMERIS_TYPE,CLASSIFICATION_TYPE,NORAD_CAT_ID,ELEMENT_SET_NO,REV_AT_EPOCH,BSTAR,MEAN_MOTION_DOT,MEAN_MOTION_DDOT
ONEWEB-0162,2021-025Q,2026-07-07T07:36:23.258304,13.13469687,.0001933,87.8974,316.2170,94.2269,265.9081,0,U,48056,999,25618,-.56954E-3,-.195E-5,0
ONEWEB-0155,2021-025R,2026-07-07T07:46:22.488096,13.13474032,.0002005,87.8980,316.2125,97.6085,262.5271,0,U,48057,999,25632,.11905E-3,.56E-6,0
ONEWEB-0149,2021-025S,2026-07-07T08:18:01.852992,13.13469718,.0001921,87.8980,316.2120,92.1690,267.9659,0,U,48058,999,25613,.98173E-3,.371E-5,0
ONEWEB-0148,2021-025T,2026-07-07T07:24:23.177376,13.13469395,.0002141,87.8974,316.2251,84.2425,275.8948,0,U,48059,999,25625,-.67579E-3,-.234E-5,0
ONEWEB-0160,2021-025U,2026-07-07T07:48:45.535392,13.13470416,.0001186,87.8974,316.2175,107.2388,252.8871,0,U,48060,999,25620,.3251E-3,.131E-5,0
ONEWEB-0163,2021-025V,2026-07-07T07:26:49.362720,13.13468973,.0002202,87.8983,316.2167,99.7929,260.3449,0,U,48061,999,25632,-.75021E-3,-.261E-5,0
ONEWEB-0159,2021-025W,2026-07-06T20:16:27.647616,13.13469408,.0002158,87.8982,316.3033,100.5970,259.5402,0,U,48062,999,25618,-.75987E-3,-.265E-5,0
ONEWEB-0164,2021-025X,2026-07-07T06:47:49.356960,13.13468818,.0001807,87.8984,316.2223,98.8698,261.2635,0,U,48063,999,25622,.49702E-3,.194E-5,0
ONEWEB-0167,2021-025Y,2026-07-07T07:28:03.228672,13.13469756,.0002372,87.8972,316.2247,112.5730,247.5651,0,U,48064,999,25621,-.66431E-3,-.23E-5,0
ONEWEB-0166,2021-025Z,2026-07-07T08:00:57.820320,13.13469711,.0001951,87.8984,316.1932,97.2977,262.8374,0,U,48065,999,25629,.68197E-3,.262E-5,0
ONEWEB-0151,2021-025AA,2026-07-07T08:03:23.357664,13.13469885,.0001935,87.8978,316.2084,102.6080,257.5265,0,U,48066,999,25623,.85585E-3,.325E-5,0
ONEWEB-0170,2021-025AB,2026-07-07T08:15:34.344000,13.13469314,.0001582,87.8981,316.2088,114.1908,245.9387,0,U,48067,999,25619,.98606E-3,.373E-5,0
ONEWEB-0168,2021-025AC,2026-07-06T20:55:27.757056,13.13469858,.0001953,87.8980,316.3037,100.2412,259.8938,0,U,48068,999,25614,.57466E-3,.223E-5,0
ONEWEB-0173,2021-025AD,2026-07-07T07:41:27.024288,13.13469813,.0002261,87.8976,316.2147,103.2757,256.8625,0,U,48069,999,25644,-.23643E-3,-.74E-6,0
ONEWEB-0171,2021-025AE,2026-07-07T08:35:04.772832,13.13468831,.0001892,87.8974,316.2151,101.2685,258.8657,0,U,48070,999,25626,.53997E-3,.21E-5,0
ONEWEB-0172,2021-025AF,2026-07-07T08:05:50.025120,13.13470575,.0002051,87.8981,316.2103,103.3316,256.8042,0,U,48071,999,25715,.81537E-3,.311E-5,0
ONEWEB-0174,2021-025AG,2026-07-07T07:39:00.950400,13.13469482,.0001993,87.8982,316.2128,95.6328,264.5028,0,U,48072,999,25647,-.3745E-3,-.124E-5,0
ONEWEB-0175,2021-025AH,2026-07-07T08:22:53.700096,13.13469497,.0001941,87.8984,316.1923,110.4264,249.7074,0,U,48073,999,25613,.10075E-2,.381E-5,0
ONEWEB-0177,2021-025AJ,2026-07-07T06:50:15.878400,13.13469152,.0002105,87.8981,316.2229,94.5756,265.5614,0,U,48074,999,25631,.28597E-3,.117E-5,0
ONEWEB-0178,2021-025AK,2026-07-07T07:17:16.789920,13.13470044,.0002066,87.8970,316.2297,105.6316,254.5042,0,U,48075,999,25636,-.71449E-3,-.248E-5,0
ONEWEB-0108,2021-025AL,2026-07-07T08:08:16.213920,13.13469555,.0001755,87.8984,316.2044,94.1832,265.9498,0,U,48076,999,25629,.10334E-2,.39E-5,0
ONEWEB-0169,2021-025AM,2026-07-06T21:56:24.294912,13.13468888,.0001961,87.8976,316.2951,95.2185,264.9168,0,U,48077,999,25489,-.58166E-3,-.2E-5,0
ONEWEB-0176,2021-031A,2026-07-07T06:34:40.917216,13.14501876,.0001987,87.8970,285.6960,98.5157,261.6198,0,U,48210,999,25095,.40273E-3,.162E-5,0
ONEWEB-0184,2021-031B,2026-07-07T05:55:51.832416,13.14502503,.000238,87.8980,285.7038,120.1996,239.9370,0,U,48211,999,25092,.40478E-3,.163E-5,0
ONEWEB-0179,2021-031C,2026-07-06T16:18:19.156896,14.25542947,.0220535,87.8995,282.2817,193.1849,166.3524,0,U,48212,999,25182,.1117E-3,.36E-5,0
ONEWEB-0180,2021-031D,2026-07-07T06:00:26.415072,13.14503291,.0002451,87.8981,285.6999,103.2379,256.9025,0,U,48213,999,25085,.53456E-3,.211E-5,0
ONEWEB-0218,2021-031E,2026-07-07T06:32:24.311040,13.14503628,.0002645,87.8981,285.6951,116.2121,243.9281,0,U,48214,999,25101,.48256E-3,.192E-5,0
ONEWEB-0209,2021-031F,2026-07-06T17:29:09.949632,13.14502981,.0002238,87.8971,285.8186,98.2770,261.8614,0,U,48215,999,25094,.52779E-3,.208E-5,0
ONEWEB-0198,2021-031G,2026-07-07T05:53:47.190048,13.14503027,.000245,87.8962,285.7128,104.8222,255.3179,0,U,48216,999,25112,.31352E-3,.129E-5,0
ONEWEB-0189,2021-031H,2026-07-06T17:24:35.059392,13.14502321,.0002326,87.8977,285.8049,105.3717,254.7670,0,U,48217,999,25079,.49606E-3,.197E-5,0
